CUTE-1 (CO-55)          
1 27844U 03031E   26196.48745324  .00000133  00000+0  76487-4 0  9995
2 27844  98.6744 204.6909 0010836 101.9513 258.2882 14.24351670195703
CUBESAT XI-IV (CO-57)   
1 27848U 03031J   26196.49013580  .00000112  00000+0  68039-4 0  9993
2 27848  98.6774 204.3834 0010557 118.6468 241.5773 14.23634657195407
CUBESAT XI-V            
1 28895U 05043F   26196.39580506  .00000649  00000+0  10993-3 0  9997
2 28895  98.3015 352.6157 0015254 114.6608 245.6189 14.72702525105907
CUTE-1.7+APD II (CO-65) 
1 32785U 08021C   26196.48612020  .00002670  00000+0  16980-3 0  9994
2 32785  97.8293 178.5012 0006993 298.3489  61.7034 15.09702643989463
CANX-2                  
1 32790U 08021H   26196.46510344  .00001515  00000+0  10896-3 0  9991
2 32790  97.8658 176.7990 0008667 317.1873  42.8677 15.05807237989066
SEEDS II (CO-66)        
1 32791U 08021J   26196.52520748  .00011174  00000+0  34561-3 0  9995
2 32791  97.7522 195.7974 0003105 155.6560 204.4829 15.33674625991634
SWISSCUBE               
1 35932U 09051B   26195.74040393  .00000468  00000+0  10206-3 0  9999
2 35932  98.4008 104.1063 0007823 120.2894 239.9082 14.62530263893188
BEESAT-1                
1 35933U 09051C   26196.31185738  .00000377  00000+0  85523-4 0  9991
2 35933  98.3935 104.2639 0006132 129.5089 230.6654 14.61761931893299
ITUPSAT1                
1 35935U 09051E   26196.19038705  .00000349  00000+0  82054-4 0  9995
2 35935  98.4018 103.3025 0008086 143.1681 217.0076 14.60478742892822
TISAT 1                 
1 36799U 10035E   26196.39430494  .00011690  00000+0  37230-3 0  9997
2 36799  98.0715 145.4709 0004530 119.7698 240.3993 15.32736305872023
STRAND-1                
1 39090U 13009E   26196.46154306  .00000118  00000+0  54112-4 0  9993
2 39090  98.3934  16.0018 0009420 140.3556 219.8321 14.37178942701127
BRITE-AUSTRIA           
1 39091U 13009F   26196.48668997  .00000073  00000+0  39531-4 0  9990
2 39091  98.4008  15.2239 0010776 149.8332 210.3477 14.36552592701112
NEE-01 PEGASO           
1 39151U 13018B   26196.33340642  .00001174  00000+0  11643-3 0  9991
2 39151  98.1256 341.4213 0013693  73.9409 286.3317 14.93789204714902
POPACS 2                
1 39269U 13055E   26195.48021384  .00012593 -92452-6  20479-3 0  9990
2 39269  80.9920 112.9412 0415023 106.1788 258.5512 14.91996677667281
POPACS 3                
1 39270U 13055F   26196.42360878  .00008298  00000+0  19704-3 0  9997
2 39270  80.9990 198.5566 0548749 343.9708  14.4695 14.56665007642662
ZACUBE-1 (TSHEPISOSAT)  
1 39417U 13066B   26196.53453899  .00001324  00000+0  10569-3 0  9993
2 39417  97.8008 159.0111 0044037 154.1192 206.2248 15.01329961684983
WNISAT-1                
1 39423U 13066H   26196.41604860  .00000596  00000+0  11622-3 0  9994
2 39423  97.7235 343.5735 0163893 142.6234 218.6502 14.58120272670849
TRITON-1                
1 39427U 13066M   26196.59051992  .00001356  00000+0  16662-3 0  9993
2 39427  97.8229 105.7491 0090629 140.8280 219.9540 14.81797638678296
GOMX-1                  
1 39430U 13066Q   26196.51166578  .00000718  00000+0  11452-3 0  9999
2 39430  97.6466  35.1869 0128209 347.1944  12.6016 14.69543287674074
CUBEBUG-2 (LO-74)       
1 39440U 13066AA  26196.53007614  .00002114  00000+0  19832-3 0  9999
2 39440  97.8914 145.6344 0055660 294.2114  65.3294 14.93968410681225
NEE-02 KRYSAOR          
1 39441U 13066AB  26196.27524733  .00001126  00000+0  12819-3 0  9997
2 39441  97.8897 135.2925 0065391 339.0273  20.8263 14.86739067680375
FUNCUBE-1 (AO-73)       
1 39444U 13066AE  26196.42520263  .00003479  00000+0  21582-3 0  9991
2 39444  97.8289 168.4697 0037991 106.9274 253.6125 15.09819276683928
UWE-3                   
1 39446U 13066AG  26196.62098564  .00001977  00000+0  17250-3 0  9997
2 39446  97.8713 152.8926 0047528 223.0802 136.6696 14.97200799681830
BRITE-CA1 (TORONTO)     
1 40020U 14033L   26196.30244425  .00000513  00000+0  84681-4 0  9994
2 40020  97.9772 324.7176 0078437 185.9177 174.1112 14.72722640646352
DUCHIFAT-1              
1 40021U 14033M   26196.10651526  .00095423  00000+0  75655-3 0  9991
2 40021  98.0418 259.3300 0002759 247.0602 113.0368 15.70998071660129
NANOSATC-BR1            
1 40024U 14033Q   26196.03158592  .00010322  00000+0  33335-3 0  9995
2 40024  98.0712 230.9033 0005301  95.9115 264.2729 15.32325644658240
QB50P1                  
1 40025U 14033R   26196.55167113  .00004446  00000+0  21798-3 0  9992
2 40025  98.0962 209.6951 0010355 123.5579 236.6643 15.18670090657336
QB50P2                  
1 40032U 14033Y   26196.23021955  .00003641  00000+0  19604-3 0  9997
2 40032  98.0760 194.8648 0009323  83.4516 276.7776 15.15506307656917
PERSEUS-M2              
1 40037U 14033AD  26196.63206737  .00001096  00000+0  10415-3 0  9992
2 40037  97.9981 147.7555 0010836 197.3830 162.7021 14.95593056655037
PERSEUS-M1              
1 40039U 14033AF  26196.40204849  .00001162  00000+0  10973-3 0  9994
2 40039  97.9654 141.0000 0010919 195.4743 164.6145 14.95716338654859
